STARLINK-31191          
1 58800U 24012P   26068.32612010 -.00002857  00000+0 -94377-4 0  9994
2 58800  42.9995 167.0192 0000611 223.2336 136.8468 15.27576274121181
STRIX-4                 
1 60352U 24137A   26068.65404516  .00020530  00000+0  71820-3 0  9996
2 60352  43.0134 129.8162 0016840   5.2738 354.8289 15.29026223 88766
